[{"OBJECT_NAME":"FLOCK 4H-36","OBJECT_ID":"2025-276CB","EPOCH":"2026-03-09T17:10:47.526240","MEAN_MOTION":15.19196799,"ECCENTRICITY":0.00014584,"INCLINATION":97.4313,"RA_OF_ASC_NODE":144.1032,"ARG_OF_PERICENTER":333.1863,"MEAN_ANOMALY":26.9296,"EPHEMERIS_TYPE":0,"CLASSIFICATION_TYPE":"U","NORAD_CAT_ID":66739,"ELEMENT_SET_NO":999,"REV_AT_EPOCH":1532,"BSTAR":0.0003489892,"MEAN_MOTION_DOT":7.279e-5,"MEAN_MOTION_DDOT":0},{"OBJECT_NAME":"OBJECT H","OBJECT_ID":"2025-313H","EPOCH":"2026-03-09T22:36:06.294528","MEAN_MOTION":15.02722765,"ECCENTRICITY":0.0085698,"INCLINATION":97.296,"RA_OF_ASC_NODE":142.3052,"ARG_OF_PERICENTER":313.0136,"MEAN_ANOMALY":46.393,"EPHEMERIS_TYPE":0,"CLASSIFICATION_TYPE":"U","NORAD_CAT_ID":67255,"ELEMENT_SET_NO":999,"REV_AT_EPOCH":1072,"BSTAR":0.0002424576,"MEAN_MOTION_DOT":3.444e-5,"MEAN_MOTION_DDOT":0}]
